{
    "links": {
        "self": "http://www.neowsapp.com/rest/v1/neo/3843139?api_key=iIulBulltgU6a56xZRHN4H3l9WmuAYTsLGpBGhQ2"
    },
    "id": "3843139",
    "neo_reference_id": "3843139",
    "name": "(2019 NN2)",
    "designation": "2019 NN2",
    "nasa_jpl_url": "http://ssd.jpl.nasa.gov/sbdb.cgi?sstr=3843139",
    "absolute_magnitude_h": 25.4,
    "estimated_diameter": {
        "kilometers": {
            "estimated_diameter_min": 0.022108281,
            "estimated_diameter_max": 0.0494356193
        },
        "meters": {
            "estimated_diameter_min": 22.1082810359,
            "estimated_diameter_max": 49.435619262
        },
        "miles": {
            "estimated_diameter_min": 0.0137374447,
            "estimated_diameter_max": 0.0307178602
        },
        "feet": {
            "estimated_diameter_min": 72.5337327539,
            "estimated_diameter_max": 162.1903570994
        }
    },
    "is_potentially_hazardous_asteroid": false,
    "close_approach_data": [
        {
            "close_approach_date": "2019-07-06",
            "close_approach_date_full": "2019-Jul-06 22:17",
            "epoch_date_close_approach": 1562451420000,
            "relative_velocity": {
                "kilometers_per_second": "11.3371535994",
                "kilometers_per_hour": "40813.752957885",
                "miles_per_hour": "25360.0788865258"
            },
            "miss_distance": {
                "astronomical": "0.0306612173",
                "lunar": "11.9272135297",
                "kilometers": "4586852.799687151",
                "miles": "2850138.1670626438"
            },
            "orbiting_body": "Earth"
        }
    ],
    "orbital_data": {
        "orbit_id": "2",
        "orbit_determination_date": "2019-07-07 06:03:08",
        "first_observation_date": "2019-07-04",
        "last_observation_date": "2019-07-06",
        "data_arc_in_days": 2,
        "observations_used": 32,
        "orbit_uncertainty": "8",
        "minimum_orbit_intersection": ".00427291",
        "jupiter_tisserand_invariant": "3.212",
        "epoch_osculation": "2458669.5",
        "eccentricity": ".6068110711001591",
        "semi_major_axis": "2.450894394002429",
        "inclination": "3.626742797646201",
        "ascending_node_longitude": "106.2764245203355",
        "orbital_period": "1401.474901474429",
        "perihelion_distance": ".9636645416244398",
        "perihelion_argument": "214.4029855517893",
        "aphelion_distance": "3.938124246380418",
        "perihelion_time": "2458699.211006392503",
        "mean_anomaly": "352.3680671769089",
        "mean_motion": ".2568722419654182",
        "equinox": "J2000",
        "orbit_class": {
            "orbit_class_type": "APO",
            "orbit_class_description": "Near-Earth asteroid orbits which cross the Earth’s orbit similar to that of 1862 Apollo",
            "orbit_class_range": "a (semi-major axis) > 1.0 AU; q (perihelion) < 1.017 AU"
        }
    },
    "is_sentry_object": false
}